[{"OBJECT_NAME":"STARLINK-31291","OBJECT_ID":"2024-041Y","EPOCH":"2026-03-09T01:05:04.867872","MEAN_MOTION":15.27575207,"ECCENTRICITY":0.00010879,"INCLINATION":43.0032,"RA_OF_ASC_NODE":314.2775,"ARG_OF_PERICENTER":284.5172,"MEAN_ANOMALY":75.5559,"EPHEMERIS_TYPE":0,"CLASSIFICATION_TYPE":"U","NORAD_CAT_ID":59096,"ELEMENT_SET_NO":999,"REV_AT_EPOCH":11417,"BSTAR":5.7830231e-5,"MEAN_MOTION_DOT":1.329e-5,"MEAN_MOTION_DDOT":0},{"OBJECT_NAME":"239ALFEROV (RS61S)","OBJECT_ID":"2025-155F","EPOCH":"2026-03-09T21:46:33.382848","MEAN_MOTION":15.29933217,"ECCENTRICITY":0.00084878,"INCLINATION":97.4469,"RA_OF_ASC_NODE":37.6373,"ARG_OF_PERICENTER":151.5904,"MEAN_ANOMALY":208.58,"EPHEMERIS_TYPE":0,"CLASSIFICATION_TYPE":"U","NORAD_CAT_ID":64881,"ELEMENT_SET_NO":999,"REV_AT_EPOCH":6561,"BSTAR":0.00067233359,"MEAN_MOTION_DOT":0.00019457,"MEAN_MOTION_DDOT":0}]
